0 QIANFAN-195
1 69413U 26125N   26180.56064038  .00000423  00000-0  18540-3 0  9998
2 69413  88.9956 279.0306 0016883 137.2845 222.9662 14.21802688  3465
0 QIANFAN-185
1 69403U 26125C   26180.55868436  .00000392  00000-0  19096-3 0  9992
2 69403  88.9956 279.0489 0017260 131.2359 229.0319 14.16092363  3451
0 QIANFAN-175
1 69392U 26124L   26180.55628597  .00000122  00000-0  49119-4 0  9991
2 69392  88.9984   0.6241 0004767 139.6842 220.4703 14.21341698  3579
0 QIANFAN-196
1 69414U 26125P   26180.55527647  .00000417  00000-0  18090-3 0  9991
2 69414  88.9956 279.0298 0016990 137.6994 222.5511 14.22297762  3465
0 QIANFAN-197
1 69415U 26125Q   26180.55102793  .00000412  00000-0  17726-3 0  9993
2 69415  88.9956 279.0291 0015261 134.8523 225.3911 14.22742189  3458
0 QIANFAN-176
1 69393U 26124M   26180.55034821  .00000129  00000-0  52083-4 0  9994
2 69393  88.9984   0.6233 0003730 143.4944 216.6502 14.21843059  3578
0 QIANFAN-178
1 69395U 26124P   26180.54542465  .00000128  00000-0  51238-4 0  9993
2 69395  88.9984   0.6224 0004041 130.4897 229.6647 14.22276077  3574
0 QIANFAN-181
1 69398U 26124S   26180.54501699  .00000092  00000-0  38723-4 0  9994
2 69398  88.9984   0.6411 0003004 104.6667 255.4855 14.16650880  3569
0 QIANFAN-186
1 69404U 26125D   26180.54309080  .00000384  00000-0  18233-3 0  9990
2 69404  88.9956 279.0467 0015710 132.1305 228.1221 14.17438435  3454
0 QIANFAN-177
1 69394U 26124N   26180.54083493  .00000122  00000-0  47789-4 0  9993
2 69394  88.9984   0.6218 0004673 121.3546 238.8104 14.22732421  3577
0 QIANFAN-179
1 69396U 26124Q   26180.53625441  .00000119  00000-0  46267-4 0  9995
2 69396  88.9983   0.6210 0004032 127.0647 233.0913 14.23099088  3575
0 QIANFAN-180
1 69397U 26124R   26180.53136926  .00000130  00000-0  50659-4 0  9994
2 69397  88.9984   0.6204 0004377 135.8551 224.2991 14.23620833  3579
0 QIANFAN-168
1 69385U 26124D   26180.52852722  .00000112  00000-0  47654-4 0  9990
2 69385  88.9984   0.6387 0003971 114.4977 245.6626 14.17874913  3566
0 QIANFAN-182
1 69399U 26124T   26180.51774868  .00000106  00000-0  44117-4 0  9992
2 69399  88.9984   0.6371 0003420 123.1041 237.0477 14.18740303  3567
0 QIANFAN-170
1 69387U 26124F   26180.51216713  .00000102  00000-0  41737-4 0  9990
2 69387  88.9984   0.6361 0003835 110.7480 249.4120 14.19185369  3560
0 QIANFAN-191
1 69409U 26125J   26180.51141362  .00000402  00000-0  18167-3 0  9996
2 69409  88.9956 279.0417 0015642 134.5652 225.6819 14.20094866  3454
0 QIANFAN-172
1 69389U 26124H   26180.50641789  .00000112  00000-0  46454-4 0  9998
2 69389  88.9984   0.6353 0003624 131.1829 228.9674 14.19640237  3569
0 QIANFAN-192
1 69410U 26125K   26180.50607681  .00000406  00000-0  18193-3 0  9991
2 69410  88.9956 279.0411 0016511 134.8997 225.3537 14.20520873  3457
0 QIANFAN-193
1 69411U 26125L   26180.49955368  .00000409  00000-0  18182-3 0  9999
2 69411  88.9955 279.0400 0016390 135.2781 224.9734 14.20963473  3457
0 QIANFAN-173
1 69390U 26124J   26180.49642176  .00000102  00000-0  40823-4 0  9992
2 69390  88.9984   0.6339 0003797 123.1855 236.9700 14.20511547  3568
0 QIANFAN-194
1 69412U 26125M   26180.49473501  .00000407  00000-0  17967-3 0  9992
2 69412  88.9955 279.0392 0015683 138.8017 221.4361 14.21405205  3445
0 QIANFAN-183
1 69401U 26125A   26180.49056763  .00000375  00000-0  18131-3 0  9995
2 69401  88.9955 279.0571 0015558 136.5423 223.6994 14.16467404  3448
0 QIANFAN-174
1 69391U 26124K   26180.49020949  .00000121  00000-0  49359-4 0  9995
2 69391  88.9984   0.6329 0004067 127.9467 232.2092 14.20880264  3568
0 QIANFAN-184
1 69402U 26125B   26180.48163527  .00000381  00000-0  18284-3 0  9998
2 69402  88.9956 279.0561 0016417 130.9672 229.2940 14.16887486  3447
0 QIANFAN-187
1 69405U 26125E   26180.46303922  .00000390  00000-0  18199-3 0  9999
2 69405  88.9956 279.0531 0016212 133.3878 226.8664 14.18349105  3444
0 QIANFAN-189
1 69407U 26125G   26180.45646459  .00000378  00000-0  17515-3 0  9992
2 69407  88.9956 279.0522 0015436 134.3249 225.9208 14.18760302  3446
0 QIANFAN-190
1 69408U 26125H   26180.45144852  .00000377  00000-0  17296-3 0  9998
2 69408  88.9956 279.0515 0016227 135.8768 224.3719 14.19223366  3445
0 QIANFAN-188
1 69406U 26125F   26180.45129900  .00000389  00000-0  17812-3 0  9990
2 69406  88.9955 279.0512 0016204 136.8040 223.4424 14.19441396  3446
