OBJECT_NAME,OBJECT_ID,EPOCH,MEAN_MOTION,ECCENTRICITY,INCLINATION,RA_OF_ASC_NODE,ARG_OF_PERICENTER,MEAN_ANOMALY,EPHEMERIS_TYPE,CLASSIFICATION_TYPE,NORAD_CAT_ID,ELEMENT_SET_NO,REV_AT_EPOCH,BSTAR,MEAN_MOTION_DOT,MEAN_MOTION_DDOT
QIANFAN-168,2026-124D,2026-06-29T12:41:04.751808,14.17874913,.0003971,88.9984,0.6387,114.4977,245.6626,0,U,69385,999,356,.47654E-4,.112E-5,0
QIANFAN-170,2026-124F,2026-06-29T12:17:31.240032,14.19185369,.0003835,88.9984,0.6361,110.7480,249.4120,0,U,69387,999,356,.41737E-4,.102E-5,0
QIANFAN-172,2026-124H,2026-06-29T12:09:14.505696,14.19640237,.0003624,88.9984,0.6353,131.1829,228.9674,0,U,69389,999,356,.46454E-4,.112E-5,0
QIANFAN-173,2026-124J,2026-06-29T11:54:50.840064,14.20511547,.0003797,88.9984,0.6339,123.1855,236.9700,0,U,69390,999,356,.40823E-4,.102E-5,0
QIANFAN-174,2026-124K,2026-06-29T11:45:54.099936,14.20880264,.0004067,88.9984,0.6329,127.9467,232.2092,0,U,69391,999,356,.49359E-4,.121E-5,0
QIANFAN-175,2026-124L,2026-06-29T13:21:03.107808,14.21341698,.0004767,88.9984,0.6241,139.6842,220.4703,0,U,69392,999,357,.49119E-4,.122E-5,0
QIANFAN-176,2026-124M,2026-06-29T13:12:30.085344,14.21843059,.000373,88.9984,0.6233,143.4944,216.6502,0,U,69393,999,357,.52083E-4,.129E-5,0
QIANFAN-177,2026-124N,2026-06-29T12:58:48.137952,14.22732421,.0004673,88.9984,0.6218,121.3546,238.8104,0,U,69394,999,357,.47789E-4,.122E-5,0
QIANFAN-178,2026-124P,2026-06-29T13:05:24.689760,14.22276077,.0004041,88.9984,0.6224,130.4897,229.6647,0,U,69395,999,357,.51238E-4,.128E-5,0
QIANFAN-179,2026-124Q,2026-06-29T12:52:12.381024,14.23099088,.0004032,88.9983,0.6210,127.0647,233.0913,0,U,69396,999,357,.46267E-4,.119E-5,0
QIANFAN-180,2026-124R,2026-06-29T12:45:10.304064,14.23620833,.0004377,88.9984,0.6204,135.8551,224.2991,0,U,69397,999,357,.50659E-4,.13E-5,0
QIANFAN-181,2026-124S,2026-06-29T13:04:49.467936,14.16650880,.0003004,88.9984,0.6411,104.6667,255.4855,0,U,69398,999,356,.38723E-4,.92E-6,0
QIANFAN-182,2026-124T,2026-06-29T12:25:33.485952,14.18740303,.000342,88.9984,0.6371,123.1041,237.0477,0,U,69399,999,356,.44117E-4,.106E-5,0
QIANFAN-183,2026-125A,2026-06-29T11:46:25.043232,14.16467404,.0015558,88.9955,279.0571,136.5423,223.6994,0,U,69401,999,344,.18131E-3,.375E-5,0
QIANFAN-184,2026-125B,2026-06-29T11:33:33.287328,14.16887486,.0016417,88.9956,279.0561,130.9672,229.2940,0,U,69402,999,344,.18284E-3,.381E-5,0
QIANFAN-185,2026-125C,2026-06-29T13:24:30.328704,14.16092363,.001726,88.9956,279.0489,131.2359,229.0319,0,U,69403,999,345,.19096E-3,.392E-5,0
QIANFAN-186,2026-125D,2026-06-29T13:02:03.045120,14.17438435,.001571,88.9956,279.0467,132.1305,228.1221,0,U,69404,999,345,.18233E-3,.384E-5,0
QIANFAN-187,2026-125E,2026-06-29T11:06:46.588608,14.18349105,.0016212,88.9956,279.0531,133.3878,226.8664,0,U,69405,999,344,.18199E-3,.39E-5,0
QIANFAN-188,2026-125F,2026-06-29T10:49:52.233600,14.19441396,.0016204,88.9955,279.0512,136.8040,223.4424,0,U,69406,999,344,.17812E-3,.389E-5,0
QIANFAN-189,2026-125G,2026-06-29T10:57:18.540576,14.18760302,.0015436,88.9956,279.0522,134.3249,225.9208,0,U,69407,999,344,.17515E-3,.378E-5,0
QIANFAN-190,2026-125H,2026-06-29T10:50:05.152128,14.19223366,.0016227,88.9956,279.0515,135.8768,224.3719,0,U,69408,999,344,.17296E-3,.377E-5,0
QIANFAN-191,2026-125J,2026-06-29T12:16:26.136768,14.20094866,.0015642,88.9956,279.0417,134.5652,225.6819,0,U,69409,999,345,.18167E-3,.402E-5,0
QIANFAN-192,2026-125K,2026-06-29T12:08:45.036384,14.20520873,.0016511,88.9956,279.0411,134.8997,225.3537,0,U,69410,999,345,.18193E-3,.406E-5,0
QIANFAN-193,2026-125L,2026-06-29T11:59:21.437952,14.20963473,.001639,88.9955,279.0400,135.2781,224.9734,0,U,69411,999,345,.18182E-3,.409E-5,0
QIANFAN-194,2026-125M,2026-06-29T11:52:25.104864,14.21405205,.0015683,88.9955,279.0392,138.8017,221.4361,0,U,69412,999,344,.17967E-3,.407E-5,0
QIANFAN-195,2026-125N,2026-06-29T13:27:19.328832,14.21802688,.0016883,88.9956,279.0306,137.2845,222.9662,0,U,69413,999,346,.1854E-3,.423E-5,0
QIANFAN-196,2026-125P,2026-06-29T13:19:35.887008,14.22297762,.001699,88.9956,279.0298,137.6994,222.5511,0,U,69414,999,346,.1809E-3,.417E-5,0
QIANFAN-197,2026-125Q,2026-06-29T13:13:28.813152,14.22742189,.0015261,88.9956,279.0291,134.8523,225.3911,0,U,69415,999,345,.17726E-3,.412E-5,0
